{
  "norad_id": 66458,
  "name": "STARLINK-35684",
  "history": [
    {
      "epoch": "2026-03-28T15:38:04.911072Z",
      "apogee_km": 483.60939530844735,
      "perigee_km": 482.30962918516616,
      "latitude_deg": -6.0673612347596986e-05,
      "longitude_deg": 128.73604246229806,
      "height_km": 482.6585049118923,
      "semi_major_axis_km": 6861.096512246806,
      "eccentricity": 9.472e-05,
      "inclination_deg": 43.0035,
      "raan_deg": 189.3254,
      "arg_perigee_deg": 276.8684,
      "mean_anomaly_deg": 83.2059,
      "mean_motion_rev_day": 15.27609918
    },
    {
      "epoch": "2026-03-29T05:45:29.741184Z",
      "apogee_km": 483.21741821838896,
      "perigee_km": 482.709696777134,
      "latitude_deg": 1.993651146523276e-05,
      "longitude_deg": -87.02026455322778,
      "height_km": 482.7087798598821,
      "semi_major_axis_km": 6861.100557497761,
      "eccentricity": 3.7e-05,
      "inclination_deg": 43.0003,
      "raan_deg": 186.0025,
      "arg_perigee_deg": 83.251,
      "mean_anomaly_deg": 276.8384,
      "mean_motion_rev_day": 15.27608567
    }
  ]
}